HULIANWANG DIGUI-132    
1 67240U 25311E   26017.94154879 -.00000031  00000+0  95137-4 0  9997
2 67240  50.0106 304.2881 0003701 315.0318  45.0280 13.88391613  3208
HULIANWANG DIGUI-133    
1 67241U 25311F   26017.86737512 -.00000014  00000+0  10877-3 0  9998
2 67241  50.0120 304.5905 0005545 357.4712   2.6157 13.88581859  3194
HULIANWANG DIGUI-134    
1 67242U 25311G   26017.94066276 -.00000017  00000+0  10647-3 0  9998
2 67242  50.0033 304.2900 0002548 346.6476  13.4354 13.88341979  3205
HULIANWANG DIGUI-135    
1 67243U 25311H   26017.94317414 -.00000025  00000+0  10080-3 0  9992
2 67243  50.0132 304.2671 0005437 228.6791 131.3640 13.88005054  3209
HULIANWANG DIGUI-136    
1 67244U 25311J   26017.93794704 -.00000020  00000+0  10398-3 0  9990
2 67244  50.0108 304.2894 0001918 343.4440  16.6395 13.88652106  3205
CZ-8A R/B               
1 67245U 25311K   26018.50848952  .00000014  00000+0  87644-4 0  9991
2 67245  50.0035 298.6173 0088969 163.1694 197.2199 14.12608693  3332
FENGYUN 4C              
1 67246U 25312A   26018.63933484 -.00000309  00000+0  00000+0 0  9996
2 67246   0.0681 237.4788 0002265  52.5854 191.1259  1.00263706   288
CZ-3B R/B               
1 67247U 25312B   26016.97827333  .00193198  25258-6  81148-3 0  9990
2 67247  28.4461 325.8546 7199052 192.6123 128.6519  2.44611885   510
2025-313A               
1 67248U 25313A   26018.61951643  .00001341  00000+0  13825-3 0  9993
2 67248  97.5624  94.5247 0280586  97.1891 266.1302 14.66804675  3096
2025-313B               
1 67249U 25313B   26018.59752660  .00003549  00000+0  27312-3 0  9997
2 67249  97.5317  94.6106 0297795 101.3453 262.1368 14.73218130  3106
2025-313C               
1 67250U 25313C   26018.64060970  .00014314  00000+0  13334-2 0  9991
2 67250  97.6360  95.2873 0162772 111.0799 250.7906 14.84776228  3135
2025-313D               
1 67251U 25313D   26018.64751536  .00002567  00000+0  22606-3 0  9997
2 67251  97.5871  95.2821 0152449 103.6302 258.1945 14.88761405  3143
