CCSDS_OMM_VERS = 2.0
CREATION_DATE  = 
ORIGINATOR     = 

OBJECT_NAME    = HULIANWANG DIGUI-132
OBJECT_ID      = 2025-311E
CENTER_NAME    = EARTH
REF_FRAME      = TEME
TIME_SYSTEM    = UTC
MEAN_ELEMENT_THEORY = SGP/SGP4

EPOCH          = 2026-01-17T22:35:49.815456
MEAN_MOTION    = 13.88391613
ECCENTRICITY   = .00037016
INCLINATION    = 50.0106
RA_OF_ASC_NODE = 304.2881
ARG_OF_PERICENTER = 315.0318
MEAN_ANOMALY   = 45.0280

EPHEMERIS_TYPE = 0
CLASSIFICATION_TYPE = U
NORAD_CAT_ID   = 67240
ELEMENT_SET_NO = 999
REV_AT_EPOCH   = 320
BSTAR          = .95137056E-4
MEAN_MOTION_DOT = -.31E-6
MEAN_MOTION_DDOT = 0

CCSDS_OMM_VERS = 2.0
CREATION_DATE  = 
ORIGINATOR     = 

OBJECT_NAME    = HULIANWANG DIGUI-133
OBJECT_ID      = 2025-311F
CENTER_NAME    = EARTH
REF_FRAME      = TEME
TIME_SYSTEM    = UTC
MEAN_ELEMENT_THEORY = SGP/SGP4

EPOCH          = 2026-01-17T20:49:01.210368
MEAN_MOTION    = 13.88581859
ECCENTRICITY   = .0005545
INCLINATION    = 50.0120
RA_OF_ASC_NODE = 304.5905
ARG_OF_PERICENTER = 357.4712
MEAN_ANOMALY   = 2.6157

EPHEMERIS_TYPE = 0
CLASSIFICATION_TYPE = U
NORAD_CAT_ID   = 67241
ELEMENT_SET_NO = 999
REV_AT_EPOCH   = 319
BSTAR          = .10876706E-3
MEAN_MOTION_DOT = -.14E-6
MEAN_MOTION_DDOT = 0

CCSDS_OMM_VERS = 2.0
CREATION_DATE  = 
ORIGINATOR     = 

OBJECT_NAME    = HULIANWANG DIGUI-134
OBJECT_ID      = 2025-311G
CENTER_NAME    = EARTH
REF_FRAME      = TEME
TIME_SYSTEM    = UTC
MEAN_ELEMENT_THEORY = SGP/SGP4

EPOCH          = 2026-01-17T22:34:33.262464
MEAN_MOTION    = 13.88341979
ECCENTRICITY   = .00025487
INCLINATION    = 50.0033
RA_OF_ASC_NODE = 304.2900
ARG_OF_PERICENTER = 346.6476
MEAN_ANOMALY   = 13.4354

EPHEMERIS_TYPE = 0
CLASSIFICATION_TYPE = U
NORAD_CAT_ID   = 67242
ELEMENT_SET_NO = 999
REV_AT_EPOCH   = 320
BSTAR          = .10647216E-3
MEAN_MOTION_DOT = -.17E-6
MEAN_MOTION_DDOT = 0

CCSDS_OMM_VERS = 2.0
CREATION_DATE  = 
ORIGINATOR     = 

OBJECT_NAME    = HULIANWANG DIGUI-135
OBJECT_ID      = 2025-311H
CENTER_NAME    = EARTH
REF_FRAME      = TEME
TIME_SYSTEM    = UTC
MEAN_ELEMENT_THEORY = SGP/SGP4

EPOCH          = 2026-01-17T22:38:10.245696
MEAN_MOTION    = 13.88005054
ECCENTRICITY   = .00054377
INCLINATION    = 50.0132
RA_OF_ASC_NODE = 304.2671
ARG_OF_PERICENTER = 228.6791
MEAN_ANOMALY   = 131.3640

EPHEMERIS_TYPE = 0
CLASSIFICATION_TYPE = U
NORAD_CAT_ID   = 67243
ELEMENT_SET_NO = 999
REV_AT_EPOCH   = 320
BSTAR          = .10079806E-3
MEAN_MOTION_DOT = -.25E-6
MEAN_MOTION_DDOT = 0

CCSDS_OMM_VERS = 2.0
CREATION_DATE  = 
ORIGINATOR     = 

OBJECT_NAME    = HULIANWANG DIGUI-136
OBJECT_ID      = 2025-311J
CENTER_NAME    = EARTH
REF_FRAME      = TEME
TIME_SYSTEM    = UTC
MEAN_ELEMENT_THEORY = SGP/SGP4

EPOCH          = 2026-01-17T22:30:38.624256
MEAN_MOTION    = 13.88652106
ECCENTRICITY   = .00019187
INCLINATION    = 50.0108
RA_OF_ASC_NODE = 304.2894
ARG_OF_PERICENTER = 343.4440
MEAN_ANOMALY   = 16.6395

EPHEMERIS_TYPE = 0
CLASSIFICATION_TYPE = U
NORAD_CAT_ID   = 67244
ELEMENT_SET_NO = 999
REV_AT_EPOCH   = 320
BSTAR          = .10398096E-3
MEAN_MOTION_DOT = -.2E-6
MEAN_MOTION_DDOT = 0

CCSDS_OMM_VERS = 2.0
CREATION_DATE  = 
ORIGINATOR     = 

OBJECT_NAME    = CZ-8A R/B
OBJECT_ID      = 2025-311K
CENTER_NAME    = EARTH
REF_FRAME      = TEME
TIME_SYSTEM    = UTC
MEAN_ELEMENT_THEORY = SGP/SGP4

EPOCH          = 2026-01-18T12:12:13.494528
MEAN_MOTION    = 14.12608693
ECCENTRICITY   = .00889695
INCLINATION    = 50.0035
RA_OF_ASC_NODE = 298.6173
ARG_OF_PERICENTER = 163.1694
MEAN_ANOMALY   = 197.2199

EPHEMERIS_TYPE = 0
CLASSIFICATION_TYPE = U
NORAD_CAT_ID   = 67245
ELEMENT_SET_NO = 999
REV_AT_EPOCH   = 333
BSTAR          = .87643694E-4
MEAN_MOTION_DOT = .14E-6
MEAN_MOTION_DDOT = 0

CCSDS_OMM_VERS = 2.0
CREATION_DATE  = 
ORIGINATOR     = 

OBJECT_NAME    = FENGYUN 4C
OBJECT_ID      = 2025-312A
CENTER_NAME    = EARTH
REF_FRAME      = TEME
TIME_SYSTEM    = UTC
MEAN_ELEMENT_THEORY = SGP/SGP4

EPOCH          = 2026-01-18T15:20:38.530176
MEAN_MOTION    = 1.00263706
ECCENTRICITY   = .00022651
INCLINATION    = 0.0681
RA_OF_ASC_NODE = 237.4788
ARG_OF_PERICENTER = 52.5854
MEAN_ANOMALY   = 191.1259

EPHEMERIS_TYPE = 0
CLASSIFICATION_TYPE = U
NORAD_CAT_ID   = 67246
ELEMENT_SET_NO = 999
REV_AT_EPOCH   = 28
BSTAR          = 0
MEAN_MOTION_DOT = -.309E-5
MEAN_MOTION_DDOT = 0

CCSDS_OMM_VERS = 2.0
CREATION_DATE  = 
ORIGINATOR     = 

OBJECT_NAME    = CZ-3B R/B
OBJECT_ID      = 2025-312B
CENTER_NAME    = EARTH
REF_FRAME      = TEME
TIME_SYSTEM    = UTC
MEAN_ELEMENT_THEORY = SGP/SGP4

EPOCH          = 2026-01-16T23:28:42.815712
MEAN_MOTION    = 2.44611885
ECCENTRICITY   = .71990527
INCLINATION    = 28.4461
RA_OF_ASC_NODE = 325.8546
ARG_OF_PERICENTER = 192.6123
MEAN_ANOMALY   = 128.6519

EPHEMERIS_TYPE = 0
CLASSIFICATION_TYPE = U
NORAD_CAT_ID   = 67247
ELEMENT_SET_NO = 999
REV_AT_EPOCH   = 51
BSTAR          = .81148402E-3
MEAN_MOTION_DOT = .193198E-2
MEAN_MOTION_DDOT = .252585E-6

CCSDS_OMM_VERS = 2.0
CREATION_DATE  = 
ORIGINATOR     = 

OBJECT_NAME    = 2025-313A
OBJECT_ID      = 2025-313A
CENTER_NAME    = EARTH
REF_FRAME      = TEME
TIME_SYSTEM    = UTC
MEAN_ELEMENT_THEORY = SGP/SGP4

EPOCH          = 2026-01-18T14:52:06.219552
MEAN_MOTION    = 14.66804675
ECCENTRICITY   = .02805869
INCLINATION    = 97.5624
RA_OF_ASC_NODE = 94.5247
ARG_OF_PERICENTER = 97.1891
MEAN_ANOMALY   = 266.1302

EPHEMERIS_TYPE = 0
CLASSIFICATION_TYPE = U
NORAD_CAT_ID   = 67248
ELEMENT_SET_NO = 999
REV_AT_EPOCH   = 309
BSTAR          = .13825332E-3
MEAN_MOTION_DOT = .1341E-4
MEAN_MOTION_DDOT = 0

CCSDS_OMM_VERS = 2.0
CREATION_DATE  = 
ORIGINATOR     = 

OBJECT_NAME    = 2025-313B
OBJECT_ID      = 2025-313B
CENTER_NAME    = EARTH
REF_FRAME      = TEME
TIME_SYSTEM    = UTC
MEAN_ELEMENT_THEORY = SGP/SGP4

EPOCH          = 2026-01-18T14:20:26.298240
MEAN_MOTION    = 14.73218130
ECCENTRICITY   = .0297795
INCLINATION    = 97.5317
RA_OF_ASC_NODE = 94.6106
ARG_OF_PERICENTER = 101.3453
MEAN_ANOMALY   = 262.1368

EPHEMERIS_TYPE = 0
CLASSIFICATION_TYPE = U
NORAD_CAT_ID   = 67249
ELEMENT_SET_NO = 999
REV_AT_EPOCH   = 310
BSTAR          = .27312231E-3
MEAN_MOTION_DOT = .3549E-4
MEAN_MOTION_DDOT = 0

CCSDS_OMM_VERS = 2.0
CREATION_DATE  = 
ORIGINATOR     = 

OBJECT_NAME    = 2025-313C
OBJECT_ID      = 2025-313C
CENTER_NAME    = EARTH
REF_FRAME      = TEME
TIME_SYSTEM    = UTC
MEAN_ELEMENT_THEORY = SGP/SGP4

EPOCH          = 2026-01-18T15:22:28.678080
MEAN_MOTION    = 14.84776228
ECCENTRICITY   = .01627729
INCLINATION    = 97.6360
RA_OF_ASC_NODE = 95.2873
ARG_OF_PERICENTER = 111.0799
MEAN_ANOMALY   = 250.7906

EPHEMERIS_TYPE = 0
CLASSIFICATION_TYPE = U
NORAD_CAT_ID   = 67250
ELEMENT_SET_NO = 999
REV_AT_EPOCH   = 313
BSTAR          = .13334291E-2
MEAN_MOTION_DOT = .14314E-3
MEAN_MOTION_DDOT = 0

CCSDS_OMM_VERS = 2.0
CREATION_DATE  = 
ORIGINATOR     = 

OBJECT_NAME    = 2025-313D
OBJECT_ID      = 2025-313D
CENTER_NAME    = EARTH
REF_FRAME      = TEME
TIME_SYSTEM    = UTC
MEAN_ELEMENT_THEORY = SGP/SGP4

EPOCH          = 2026-01-18T15:32:25.327104
MEAN_MOTION    = 14.88761405
ECCENTRICITY   = .01524497
INCLINATION    = 97.5871
RA_OF_ASC_NODE = 95.2821
ARG_OF_PERICENTER = 103.6302
MEAN_ANOMALY   = 258.1945

EPHEMERIS_TYPE = 0
CLASSIFICATION_TYPE = U
NORAD_CAT_ID   = 67251
ELEMENT_SET_NO = 999
REV_AT_EPOCH   = 314
BSTAR          = .22606383E-3
MEAN_MOTION_DOT = .2567E-4
MEAN_MOTION_DDOT = 0

